{"spkid": "50747330", "covariance": {"data": [["1.881124667344974E-15", "-1.727856540634333E-15", "5.463041538641517E-14", "-1.310849466098168E-13", "1.711778156074881E-13", "6.314037393488971E-14"], ["-1.727856540634333E-15", "1.590178360855406E-15", "-2.304385399086107E-15", "1.226616823745819E-13", "-1.337174873587745E-13", "-6.303108000285561E-14"], ["5.463041538641517E-14", "-2.304385399086107E-15", "1.271599253790596E-9", "7.226391327284856E-11", "6.463791199892548E-10", "-1.256976687535206E-10"], ["-1.310849466098168E-13", "1.226616823745819E-13", "7.226391327284856E-11", "7.598649857302933E-10", "-7.139119240677207E-10", "-5.504443863898411E-11"], ["1.711778156074881E-13", "-1.337174873587745E-13", "6.463791199892548E-10", "-7.139119240677207E-10", "1.079736240411487E-9", "-1.472147035106732E-11"], ["6.314037393488971E-14", "-6.303108000285561E-14", "-1.256976687535206E-10", "-5.504443863898411E-11", "-1.472147035106732E-11", "2.61412276175206E-11"]], "elements": [{"label": "e", "name": "e", "sigma": 4.33719340973512e-08, "units": null, "title": "eccentricity", "value": ".3521807370738268"}, {"label": "q", "title": "perihelion distance", "value": ".5969814258165717", "units": "au", "sigma": 3.98770405227796e-08, "name": "q"}, {"name": "tp", "sigma": 3.5659490374802e-05, "units": "TDB", "value": "2458556.620446092707", "title": "time of perihelion passage", "label": "tp"}, {"value": "7.50048966843772", "title": "longitude of the ascending node", "units": "deg", "name": "om", "sigma": 2.75656486542634e-05, "label": "node"}, {"title": "argument of perihelion", "value": "329.2472980358721", "units": "deg", "sigma": 3.2859340230922e-05, "name": "w", "label": "peri"}, {"units": "deg", "title": "inclination", "value": "5.590109605622247", "sigma": 5.11284926606688e-06, "name": "i", "label": "i"}], "labels": ["e", "q", "tp", "node", "peri", "i"], "epoch": "2458593.5"}, "elements": [{"label": "e", "value": ".3523990488117118", "title": "eccentricity", "units": null, "name": "e", "sigma": "4.3464E-8"}, {"units": "au", "title": "semi-major axis", "value": ".9213946697134247", "sigma": "1.5101E-9", "name": "a", "label": "a"}, {"label": "q", "sigma": "4.0048E-8", "name": "q", "value": ".5966960645262325", "title": "perihelion distance", "units": "au"}, {"sigma": "5.1261E-6", "name": "i", "units": "deg", "title": "inclination; angle with respect to x-y ecliptic plane", "value": "5.585748444375104", "label": "i"}, {"label": "node", "units": "deg", "title": "longitude of the ascending node", "value": "7.399045449152296", "sigma": "2.7588E-5", "name": "om"}, {"name": "w", "sigma": "3.2812E-5", "units": "deg", "title": "argument of perihelion", "value": "329.3488902703492", "label": "peri"}, {"label": "M", "name": "ma", "sigma": "4.772E-5", "units": "deg", "title": "mean anomaly", "value": "65.68993288361739"}, {"label": "tp", "units": "TDB", "value": "2461141.552785523635", "title": "time of perihelion passage", "sigma": "4.2739E-5", "name": "tp"}, {"value": "323.0479356568746", "title": "sidereal orbital period", "units": "d", "name": "per", "sigma": "7.9417E-7", "label": "period"}, {"units": "deg/d", "value": "1.114385700276921", "title": "mean motion", "name": "n", "sigma": "2.7396E-9", "label": "n"}, {"label": "Q", "sigma": "2.0422E-9", "name": "ad", "title": "aphelion distance", "value": "1.246093274900617", "units": "au"}], "epoch": "2461200.5"}